start=new Date('2023-06-05T00:00:00.000Z').valueOf();
sats=[{"TLE_LINE1":"1 55945U 23037AH  23155.85896651  .00000834  00000-0  87008-5 0  9990","TIME_SYSTEM":"UTC","APOAPSIS":"361.216","EPHEMERIS_TYPE":"0","RCS_SIZE":"LARGE","MEAN_MOTION_DOT":"0.00000834","BSTAR":"0.00000870080000","ECCENTRICITY":"0.00031370","LAUNCH_DATE":"2023-03-17","MEAN_MOTION_DDOT":"0.0000000000000","MEAN_MOTION":"15.69928926","SEMIMAJOR_AXIS":"6737.237","EPOCH":"2023-06-04T20:36:54.706464","ARG_OF_PERICENTER":"268.6080","CLASSIFICATION_TYPE":"U","MEAN_ANOMALY":"91.4757","MEAN_ELEMENT_THEORY":"SGP4","OBJECT_ID":"2023-037AH","SITE":"AFWTR","CENTER_NAME":"EARTH","PERIOD":"91.724","NORAD_CAT_ID":"55945","REV_AT_EPOCH":"1260","FILE":"3925173","OBJECT_NAME":"STARLINK-5925","PERIAPSIS":"356.989","ELEMENT_SET_NO":"999","COUNTRY_CODE":"US","OBJECT_TYPE":"PAYLOAD","INCLINATION":"69.9988","DECAY_DATE":null,"RA_OF_ASC_NODE":"318.6984","REF_FRAME":"TEME","TLE_LINE2":"2 55945  69.9988 318.6984 0003137 268.6080  91.4757 15.69928926 12601","GP_ID":"233219736"},{"EPHEMERIS_TYPE":"0","RCS_SIZE":"LARGE","MEAN_MOTION_DOT":"0.00000494","TIME_SYSTEM":"UTC","TLE_LINE1":"1 55946U 23037AJ  23155.85886062  .00000494  00000-0  58764-5 0  9995","APOAPSIS":"361.553","MEAN_MOTION":"15.69932461","SEMIMAJOR_AXIS":"6737.227","EPOCH":"2023-06-04T20:36:45.557568","ARG_OF_PERICENTER":"269.3862","MEAN_ANOMALY":"90.6916","CLASSIFICATION_TYPE":"U","MEAN_ELEMENT_THEORY":"SGP4","OBJECT_ID":"2023-037AJ","BSTAR":"0.00000587640000","ECCENTRICITY":"0.00036520","LAUNCH_DATE":"2023-03-17","MEAN_MOTION_DDOT":"0.0000000000000","PERIOD":"91.724","NORAD_CAT_ID":"55946","REV_AT_EPOCH":"1260","SITE":"AFWTR","CENTER_NAME":"EARTH","INCLINATION":"69.9985","DECAY_DATE":null,"REF_FRAME":"TEME","RA_OF_ASC_NODE":"318.7001","TLE_LINE2":"2 55946  69.9985 318.7001 0003652 269.3862  90.6916 15.69932461 12605","GP_ID":"233219986","FILE":"3925173","OBJECT_NAME":"STARLINK-5857","PERIAPSIS":"356.632","ELEMENT_SET_NO":"999","OBJECT_TYPE":"PAYLOAD","COUNTRY_CODE":"US"},{"EPHEMERIS_TYPE":"0","RCS_SIZE":"LARGE","MEAN_MOTION_DOT":"0.00002771","TLE_LINE1":"1 55947U 23037AK  23155.85844166  .00002771  00000-0  24808-4 0  9996","TIME_SYSTEM":"UTC","APOAPSIS":"361.301","MEAN_MOTION":"15.69926619","EPOCH":"2023-06-04T20:36:09.359424","SEMIMAJOR_AXIS":"6737.244","ARG_OF_PERICENTER":"275.5061","CLASSIFICATION_TYPE":"U","MEAN_ANOMALY":"84.5763","MEAN_ELEMENT_THEORY":"SGP4","OBJECT_ID":"2023-037AK","BSTAR":"0.00002480800000","ECCENTRICITY":"0.00032540","LAUNCH_DATE":"2023-03-17","MEAN_MOTION_DDOT":"0.0000000000000","PERIOD":"91.724","NORAD_CAT_ID":"55947","REV_AT_EPOCH":"1260","SITE":"AFWTR","CENTER_NAME":"EARTH","INCLINATION":"69.9987","DECAY_DATE":null,"REF_FRAME":"TEME","RA_OF_ASC_NODE":"318.6971","TLE_LINE2":"2 55947  69.9987 318.6971 0003254 275.5061  84.5763 15.69926619 12601","GP_ID":"233220738","FILE":"3925173","OBJECT_NAME":"STARLINK-5851","PERIAPSIS":"356.917","ELEMENT_SET_NO":"999","COUNTRY_CODE":"US","OBJECT_TYPE":"PAYLOAD"},{"EPHEMERIS_TYPE":"0","RCS_SIZE":"LARGE","MEAN_MOTION_DOT":"0.00002689","APOAPSIS":"361.462","TIME_SYSTEM":"UTC","TLE_LINE1":"1 55948U 23037AL  23155.85791171  .00002689  00000-0  24112-4 0  9990","MEAN_ELEMENT_THEORY":"SGP4","OBJECT_ID":"2023-037AL","MEAN_MOTION":"15.69935609","SEMIMAJOR_AXIS":"6737.218","EPOCH":"2023-06-04T20:35:23.571744","ARG_OF_PERICENTER":"277.3868","CLASSIFICATION_TYPE":"U","MEAN_ANOMALY":"82.6927","LAUNCH_DATE":"2023-03-17","MEAN_MOTION_DDOT":"0.0000000000000","ECCENTRICITY":"0.00035310","BSTAR":"0.00002411200000","NORAD_CAT_ID":"55948","REV_AT_EPOCH":"1260","PERIOD":"91.724","SITE":"AFWTR","CENTER_NAME":"EARTH","TLE_LINE2":"2 55948  69.9990 318.6923 0003531 277.3868  82.6927 15.69935609 12606","GP_ID":"233221489","INCLINATION":"69.9990","DECAY_DATE":null,"REF_FRAME":"TEME","RA_OF_ASC_NODE":"318.6923","PERIAPSIS":"356.704","ELEMENT_SET_NO":"999","OBJECT_TYPE":"PAYLOAD","COUNTRY_CODE":"US","FILE":"3925173","OBJECT_NAME":"STARLINK-5900"},{"MEAN_MOTION_DDOT":"0.0000000000000","LAUNCH_DATE":"2023-03-17","BSTAR":"0.00001618800000","ECCENTRICITY":"0.00037130","MEAN_ELEMENT_THEORY":"SGP4","OBJECT_ID":"2023-037AM","EPOCH":"2023-06-04T20:35:41.680320","SEMIMAJOR_AXIS":"6737.223","MEAN_MOTION":"15.69933800","CLASSIFICATION_TYPE":"U","MEAN_ANOMALY":"91.7199","ARG_OF_PERICENTER":"268.3571","APOAPSIS":"361.590","TLE_LINE1":"1 55949U 23037AM  23155.85812130  .00001735  00000-0  16188-4 0  9995","TIME_SYSTEM":"UTC","EPHEMERIS_TYPE":"0","MEAN_MOTION_DOT":"0.00001735","RCS_SIZE":"LARGE","ELEMENT_SET_NO":"999","PERIAPSIS":"356.587","COUNTRY_CODE":"US","OBJECT_TYPE":"PAYLOAD","FILE":"3925173","OBJECT_NAME":"STARLINK-5899","TLE_LINE2":"2 55949  69.9982 318.6951 0003713 268.3571  91.7199 15.69933800 12605","GP_ID":"233220237","INCLINATION":"69.9982","REF_FRAME":"TEME","RA_OF_ASC_NODE":"318.6951","DECAY_DATE":null,"SITE":"AFWTR","CENTER_NAME":"EARTH","NORAD_CAT_ID":"55949","REV_AT_EPOCH":"1260","PERIOD":"91.724"},{"EPHEMERIS_TYPE":"0","RCS_SIZE":"LARGE","MEAN_MOTION_DOT":"0.00001369","TLE_LINE1":"1 55950U 23037AN  23155.85769920  .00001369  00000-0  13150-4 0  9994","TIME_SYSTEM":"UTC","APOAPSIS":"361.588","MEAN_MOTION":"15.69934069","SEMIMAJOR_AXIS":"6737.223","EPOCH":"2023-06-04T20:35:05.210880","ARG_OF_PERICENTER":"273.7132","CLASSIFICATION_TYPE":"U","MEAN_ANOMALY":"86.3639","MEAN_ELEMENT_THEORY":"SGP4","OBJECT_ID":"2023-037AN","BSTAR":"0.00001315000000","ECCENTRICITY":"0.00037110","LAUNCH_DATE":"2023-03-17","MEAN_MOTION_DDOT":"0.0000000000000","PERIOD":"91.724","NORAD_CAT_ID":"55950","REV_AT_EPOCH":"1260","SITE":"AFWTR","CENTER_NAME":"EARTH","INCLINATION":"69.9977","DECAY_DATE":null,"REF_FRAME":"TEME","RA_OF_ASC_NODE":"318.6932","TLE_LINE2":"2 55950  69.9977 318.6932 0003711 273.7132  86.3639 15.69934069 12608","GP_ID":"233220487","FILE":"3925173","OBJECT_NAME":"STARLINK-5911","PERIAPSIS":"356.587","ELEMENT_SET_NO":"999","COUNTRY_CODE":"US","OBJECT_TYPE":"PAYLOAD"},{"OBJECT_TYPE":"PAYLOAD","COUNTRY_CODE":"US","ELEMENT_SET_NO":"999","PERIAPSIS":"356.617","OBJECT_NAME":"STARLINK-5908","FILE":"3925173","GP_ID":"233221239","TLE_LINE2":"2 55951  69.9975 318.6955 0003691 272.4153  87.6620 15.69928394 12606","RA_OF_ASC_NODE":"318.6955","REF_FRAME":"TEME","DECAY_DATE":null,"INCLINATION":"69.9975","CENTER_NAME":"EARTH","SITE":"AFWTR","REV_AT_EPOCH":"1260","NORAD_CAT_ID":"55951","PERIOD":"91.724","MEAN_MOTION_DDOT":"0.0000000000000","LAUNCH_DATE":"2023-03-17","ECCENTRICITY":"0.00036910","BSTAR":"0.00000082564000","OBJECT_ID":"2023-037AP","MEAN_ELEMENT_THEORY":"SGP4","CLASSIFICATION_TYPE":"U","MEAN_ANOMALY":"87.6620","ARG_OF_PERICENTER":"272.4153","SEMIMAJOR_AXIS":"6737.239","EPOCH":"2023-06-04T20:36:00.481824","MEAN_MOTION":"15.69928394","APOAPSIS":"361.591","TLE_LINE1":"1 55951U 23037AP  23155.85833891 -.00000114  00000-0  82564-6 0  9999","TIME_SYSTEM":"UTC","MEAN_MOTION_DOT":"-0.00000114","RCS_SIZE":"LARGE","EPHEMERIS_TYPE":"0"},{"MEAN_ELEMENT_THEORY":"SGP4","OBJECT_ID":"2023-037AQ","EPOCH":"2023-06-04T20:35:32.718912","SEMIMAJOR_AXIS":"6737.226","MEAN_MOTION":"15.69932854","CLASSIFICATION_TYPE":"U","MEAN_ANOMALY":"87.6423","ARG_OF_PERICENTER":"272.4411","MEAN_MOTION_DDOT":"0.0000000000000","LAUNCH_DATE":"2023-03-17","BSTAR":"0.00000694970000","ECCENTRICITY":"0.00031540","EPHEMERIS_TYPE":"0","MEAN_MOTION_DOT":"0.00000623","RCS_SIZE":"LARGE","APOAPSIS":"361.216","TLE_LINE1":"1 55952U 23037AQ  23155.85801758  .00000623  00000-0  69497-5 0  9990","TIME_SYSTEM":"UTC","TLE_LINE2":"2 55952  69.9992 318.6952 0003154 272.4411  87.6423 15.69932854 12601","GP_ID":"233220989","INCLINATION":"69.9992","RA_OF_ASC_NODE":"318.6952","REF_FRAME":"TEME","DECAY_DATE":null,"ELEMENT_SET_NO":"999","PERIAPSIS":"356.966","COUNTRY_CODE":"US","OBJECT_TYPE":"PAYLOAD","FILE":"3925173","OBJECT_NAME":"STARLINK-5893","NORAD_CAT_ID":"55952","REV_AT_EPOCH":"1260","PERIOD":"91.724","SITE":"AFWTR","CENTER_NAME":"EARTH"},{"NORAD_CAT_ID":"55953","REV_AT_EPOCH":"1260","PERIOD":"91.723","SITE":"AFWTR","CENTER_NAME":"EARTH","TLE_LINE2":"2 55953  70.0000 318.6963 0003855 277.6871  82.3887 15.69937424 12606","GP_ID":"233219737","INCLINATION":"70.0000","RA_OF_ASC_NODE":"318.6963","REF_FRAME":"TEME","DECAY_DATE":null,"ELEMENT_SET_NO":"999","PERIAPSIS":"356.481","COUNTRY_CODE":"US","OBJECT_TYPE":"PAYLOAD","FILE":"3925173","OBJECT_NAME":"STARLINK-5889","EPHEMERIS_TYPE":"0","MEAN_MOTION_DOT":"0.00004403","RCS_SIZE":"LARGE","APOAPSIS":"361.675","TIME_SYSTEM":"UTC","TLE_LINE1":"1 55953U 23037AR  23155.85822712  .00004403  00000-0  38342-4 0  9998","MEAN_ELEMENT_THEORY":"SGP4","OBJECT_ID":"2023-037AR","SEMIMAJOR_AXIS":"6737.213","EPOCH":"2023-06-04T20:35:50.823168","MEAN_MOTION":"15.69937424","CLASSIFICATION_TYPE":"U","MEAN_ANOMALY":"82.3887","ARG_OF_PERICENTER":"277.6871","MEAN_MOTION_DDOT":"0.0000000000000","LAUNCH_DATE":"2023-03-17","BSTAR":"0.00003834200000","ECCENTRICITY":"0.00038550"},{"MEAN_MOTION":"15.69942347","SEMIMAJOR_AXIS":"6737.199","EPOCH":"2023-06-04T20:34:01.551360","ARG_OF_PERICENTER":"276.2308","MEAN_ANOMALY":"83.8406","CLASSIFICATION_TYPE":"U","MEAN_ELEMENT_THEORY":"SGP4","OBJECT_ID":"2023-037AS","ECCENTRICITY":"0.00042230","BSTAR":"0.00008551500000","LAUNCH_DATE":"2023-03-17","MEAN_MOTION_DDOT":"0.0000000000000","EPHEMERIS_TYPE":"0","RCS_SIZE":"LARGE","MEAN_MOTION_DOT":"0.00010091","TIME_SYSTEM":"UTC","TLE_LINE1":"1 55954U 23037AS  23155.85696240  .00010091  00000-0  85515-4 0  9998","APOAPSIS":"361.909","INCLINATION":"70.0001","DECAY_DATE":null,"REF_FRAME":"TEME","RA_OF_ASC_NODE":"318.6893","TLE_LINE2":"2 55954  70.0001 318.6893 0004223 276.2308  83.8406 15.69942347 12603","GP_ID":"233219987","FILE":"3925173","OBJECT_NAME":"STARLINK-5892","PERIAPSIS":"356.219","ELEMENT_SET_NO":"999","COUNTRY_CODE":"US","OBJECT_TYPE":"PAYLOAD","PERIOD":"91.723","NORAD_CAT_ID":"55954","REV_AT_EPOCH":"1260","SITE":"AFWTR","CENTER_NAME":"EARTH"}];
